[{"OBJECT_NAME":"STARLINK-32481","OBJECT_ID":"2024-239V","EPOCH":"2026-03-09T14:20:52.480896","MEAN_MOTION":15.30192248,"ECCENTRICITY":8.64e-5,"INCLINATION":53.158,"RA_OF_ASC_NODE":181.2934,"ARG_OF_PERICENTER":77.3849,"MEAN_ANOMALY":282.7248,"EPHEMERIS_TYPE":0,"CLASSIFICATION_TYPE":"U","NORAD_CAT_ID":62320,"ELEMENT_SET_NO":999,"REV_AT_EPOCH":6955,"BSTAR":0.00082302,"MEAN_MOTION_DOT":0.0002409,"MEAN_MOTION_DDOT":0},{"OBJECT_NAME":"TEVEL2-4","OBJECT_ID":"2025-052D","EPOCH":"2026-03-09T16:39:37.129536","MEAN_MOTION":15.30925813,"ECCENTRICITY":0.0004733,"INCLINATION":97.4009,"RA_OF_ASC_NODE":325.1237,"ARG_OF_PERICENTER":95.3468,"MEAN_ANOMALY":264.8313,"EPHEMERIS_TYPE":0,"CLASSIFICATION_TYPE":"U","NORAD_CAT_ID":63213,"ELEMENT_SET_NO":999,"REV_AT_EPOCH":5487,"BSTAR":0.00070362503,"MEAN_MOTION_DOT":0.0002099,"MEAN_MOTION_DDOT":0}]
