STARLINK-32481          
1 62320U 24239V   26068.59782964  .00024090  00000+0  82302-3 0  9997
2 62320  53.1580 181.2934 0000864  77.3849 282.7248 15.30192248 69554
TEVEL2-4                
1 63213U 25052D   26068.69417973  .00020990  00000+0  70363-3 0  9998
2 63213  97.4009 325.1237 0004733  95.3468 264.8313 15.30925813 54879
